[{"OBJECT_NAME":"SCS-01 K","OBJECT_ID":"2025-100K","EPOCH":"2026-03-09T23:34:24.068928","MEAN_MOTION":15.20905927,"ECCENTRICITY":0.0009688,"INCLINATION":97.3704,"RA_OF_ASC_NODE":143.9421,"ARG_OF_PERICENTER":311.1464,"MEAN_ANOMALY":48.8935,"EPHEMERIS_TYPE":0,"CLASSIFICATION_TYPE":"U","NORAD_CAT_ID":63991,"ELEMENT_SET_NO":999,"REV_AT_EPOCH":4554,"BSTAR":0.00099261902,"MEAN_MOTION_DOT":0.00021955,"MEAN_MOTION_DDOT":0},{"OBJECT_NAME":"TRANSPORTER-15 OBJECT CN","OBJECT_ID":"2025-276CN","EPOCH":"2026-03-09T04:35:33.344160","MEAN_MOTION":15.18977527,"ECCENTRICITY":5.071e-5,"INCLINATION":97.4304,"RA_OF_ASC_NODE":143.5648,"ARG_OF_PERICENTER":336.0158,"MEAN_ANOMALY":24.1053,"EPHEMERIS_TYPE":0,"CLASSIFICATION_TYPE":"U","NORAD_CAT_ID":66750,"ELEMENT_SET_NO":999,"REV_AT_EPOCH":1524,"BSTAR":0.00028330364,"MEAN_MOTION_DOT":5.857e-5,"MEAN_MOTION_DDOT":0}]
